NORAD_CAT_ID,OBJECT_NAME,OBJECT_TYPE,EPOCH,MEAN_MOTION,ECCENTRICITY,INCLINATION,RA_OF_ASC_NODE,ARG_OF_PERICENTER,MEAN_ANOMALY,BSTAR,MEAN_MOTION_DOT,MEAN_MOTION_DDOT,TLE_LINE0,TLE_LINE1,TLE_LINE2,SEMIMAJOR_AXIS,PERIOD,APOGEE,PERIGEE,DECAYED
53252.0,STARLINK-4132,PAYLOAD,2022-10-12 14:00:01,15.08819766,0.0002162,53.2173,19.1336,40.1297,286.2112,0.00567,0.00091068,0.0,0 STARLINK-4132,1 53252U 22086L   22285.58334491  .00091068  00000-0  56700-2 0  9995,2 53252  53.2173  19.1336 0002162  40.1297 286.2112 15.08819766  1304,6917.941999999999,95.439,541.303,538.312,0.0
53252.0,STARLINK-4132,PAYLOAD,2022-10-12 22:00:00,15.08900979,0.0001849,53.2171,17.6312,40.7564,297.1952,-0.0063024,-0.00099377,0.0,0 STARLINK-4132,1 53252U 22086L   22285.91667824 -.00099377  00000-0 -63024-2 0  9991,2 53252  53.2171  17.6312 0001849  40.7564 297.1952 15.08900979  1303,6917.694,95.434,540.8380000000002,538.28,0.0
53252.0,STARLINK-4132,PAYLOAD,2022-10-13 06:00:00,15.0883435,0.0002008999999999,53.2174,16.1395,39.3911,310.1833,0.00083182,0.00012973,0.0,0 STARLINK-4132,1 53252U 22086L   22286.25001157  .00012973  00000-0  83182-3 0  9993,2 53252  53.2174  16.1395 0002009  39.3911 310.1833 15.08834350 13160,6917.898,95.438,541.1519999999998,538.373,0.0
53252.0,STARLINK-4132,PAYLOAD,2022-10-13 14:00:01,15.08825963,0.0002206,53.2175,14.6403,37.2473,323.928,0.00085267,0.00013303,0.0,0 STARLINK-4132,1 53252U 22086L   22286.58334491  .00013303  00000-0  85267-3 0  9993,2 53252  53.2175  14.6403 0002206  37.2473 323.9280 15.08825963  1315,6917.9230000000025,95.438,541.314,538.262,0.0
53252.0,STARLINK-4132,PAYLOAD,2022-10-13 22:00:00,15.08838199,0.0002168,53.2174,13.1388,36.6856,336.0772,-0.00021198,-3.66e-05,0.0,0 STARLINK-4132,1 53252U 22086L   22286.91667824 -.00003660  00000-0 -21198-3 0  9999,2 53252  53.2174  13.1388 0002168  36.6856 336.0772 15.08838199  1300,6917.886,95.438,541.251,538.251,0.0
53252.0,STARLINK-4132,PAYLOAD,2022-10-14 06:00:00,15.08838863,0.0002053,53.2175,11.6495,36.4226,347.8959,0.0021896999999999,0.00034732,0.0,0 STARLINK-4132,1 53252U 22086L   22287.25001157  .00034732  00000-0  21897-2 0  9995,2 53252  53.2175  11.6495 0002053  36.4226 347.8959 15.08838863 13314,6917.884,95.438,541.169,538.3290000000002,0.0
53252.0,STARLINK-4132,PAYLOAD,2022-10-14 14:00:01,15.08871512,0.0002201,53.2176,10.1501,31.6988,4.2285,-0.0033957,-0.00053975,0.0,0 STARLINK-4132,1 53252U 22086L   22287.58334491 -.00053975  00000-0 -33957-2 0  9993,2 53252  53.2176  10.1501 0002201  31.6988   4.2285 15.08871512  1304,6917.784000000002,95.436,541.172,538.126,0.0
53252.0,STARLINK-4132,PAYLOAD,2022-10-14 22:00:00,15.08837907,0.0002112,53.2174,8.6495,30.0838,17.456,-0.0001719,-3.023e-05,0.0,0 STARLINK-4132,1 53252U 22086L   22287.91667824 -.00003023  00000-0 -17190-3 0  9990,2 53252  53.2174   8.6495 0002112  30.0838  17.4560 15.08837907 13411,6917.887,95.438,541.2130000000002,538.2909999999998,0.0
53252.0,STARLINK-4132,PAYLOAD,2022-10-15 14:00:01,15.08871354,0.0002275,53.2182,5.6735,33.1258,37.6305,-0.0020897,-0.00033422,0.0,0 STARLINK-4132,1 53252U 22086L   22288.58334491 -.00033422  00000-0 -20897-2 0  9998,2 53252  53.2182   5.6735 0002275  33.1258  37.6305 15.08871354 13510,6917.785,95.436,541.2230000000002,538.076,0.0
53252.0,STARLINK-4132,PAYLOAD,2022-10-15 22:00:01,15.08869174,0.0002153,53.2181,4.1757,33.6057,48.8365,-0.0058312,-0.00091985,0.0,0 STARLINK-4132,1 53252U 22086L   22288.91668981 -.00091985  00000-0 -58312-2 0  9990,2 53252  53.2181   4.1757 0002153  33.6057  48.8365 15.08869174  1305,6917.791,95.436,541.146,538.1669999999998,0.0
53252.0,STARLINK-4132,PAYLOAD,2022-10-16 14:00:01,15.08800127,0.0002320999999999,53.2182,1.1845,34.6816,70.843,0.0022649,0.00035903,0.0,0 STARLINK-4132,1 53252U 22086L   22289.58334491  .00035903  00000-0  22649-2 0  9990,2 53252  53.2182   1.1845 0002321  34.6816  70.8430 15.08800127  1303,6918.002,95.44,541.4730000000002,538.262,0.0
53252.0,STARLINK-4132,PAYLOAD,2022-10-16 22:00:00,15.08831993,0.0002150999999999,53.218,359.6852,35.0104,82.0794,-0.0027098,-0.00043149,0.0,0 STARLINK-4132,1 53252U 22086L   22289.91667824 -.00043149  00000-0 -27098-2 0  9992,2 53252  53.2180 359.6852 0002151  35.0104  82.0794 15.08831993 13717,6917.905,95.438,541.258,538.2819999999998,0.0
53252.0,STARLINK-4132,PAYLOAD,2022-10-17 06:00:00,15.08824238,0.0002078,53.2179,358.1877,37.7125,90.9479,0.00082759,0.00012902,0.0,0 STARLINK-4132,1 53252U 22086L   22290.25001157  .00012902  00000-0  82759-3 0  9999,2 53252  53.2179 358.1877 0002078  37.7125  90.9479 15.08824238 13763,6917.929,95.439,541.231,538.356,0.0
53252.0,STARLINK-4132,PAYLOAD,2022-10-17 14:00:01,15.08822023,0.0002322,53.2176,356.6933,33.3878,106.8765,0.0031669,0.0005045,0.0,0 STARLINK-4132,1 53252U 22086L   22290.58334491  .00050450  00000-0  31669-2 0  9998,2 53252  53.2176 356.6933 0002322  33.3878 106.8765 15.08822023  1307,6917.935,95.439,541.4069999999998,538.194,0.0
53252.0,STARLINK-4132,PAYLOAD,2022-10-17 22:00:00,15.08841003,0.0002085999999999,53.2178,355.1953,33.8939,117.9372,-0.0021484,-0.00034319,0.0,0 STARLINK-4132,1 53252U 22086L   22290.91667824 -.00034319  00000-0 -21484-2 0  9996,2 53252  53.2178 355.1953 0002086  33.8939 117.9372 15.08841003  1301,6917.877,95.437,541.185,538.299,0.0
53252.0,STARLINK-4132,PAYLOAD,2022-10-18 06:00:00,15.08795156,0.0002065999999999,53.2177,353.6932,35.5273,127.891,0.0084122,0.00136022,0.0,0 STARLINK-4132,1 53252U 22086L   22291.25001157  .00136022  00000-0  84122-2 0  9995,2 53252  53.2177 353.6932 0002066  35.5273 127.8910 15.08795156 13913,6918.017,95.44,541.312,538.453,0.0
53252.0,STARLINK-4132,PAYLOAD,2022-10-18 14:00:01,15.08823846,0.0002249,53.2175,352.2068,31.7151,143.2967,0.00208,0.00032956,0.0,0 STARLINK-4132,1 53252U 22086L   22291.58334491  .00032956  00000-0  20800-2 0  9995,2 53252  53.2175 352.2068 0002249  31.7151 143.2967 15.08823846 13969,6917.93,95.439,541.351,538.239,0.0
53252.0,STARLINK-4132,PAYLOAD,2022-10-18 22:00:00,15.08819815,0.0002093,53.2173,350.7088,33.4819,153.112,-0.00058987,-9.659e-05,0.0,0 STARLINK-4132,1 53252U 22086L   22291.91667824 -.00009659  00000-0 -58987-3 0  9995,2 53252  53.2173 350.7088 0002093  33.4819 153.1120 15.08819815 14018,6917.941999999999,95.439,541.255,538.359,0.0
53252.0,STARLINK-4132,PAYLOAD,2022-10-19 14:00:01,15.08805267,0.0002335999999999,53.2173,347.7179,31.9561,177.7847,0.0034845999999999,0.00055555,0.0,0 STARLINK-4132,1 53252U 22086L   22292.58334491  .00055555  00000-0  34846-2 0  9991,2 53252  53.2173 347.7179 0002336  31.9561 177.7847 15.08805267  1304,6917.986999999999,95.44,541.4680000000002,538.236,0.0
53252.0,STARLINK-4132,PAYLOAD,2022-10-19 22:00:00,15.08836748,0.0002186999999999,53.2172,346.2199,34.2168,187.1088,0.0010021,0.00015695,0.0,0 STARLINK-4132,1 53252U 22086L   22292.91667824  .00015695  00000-0  10021-2 0  9997,2 53252  53.2172 346.2199 0002187  34.2168 187.1088 15.08836748  1302,6917.89,95.438,541.268,538.242,0.0
53252.0,STARLINK-4132,PAYLOAD,2022-10-20 14:00:01,15.08852358,0.0002428,53.217,343.2268,32.1749,212.3713,0.00063909,9.901e-05,0.0,0 STARLINK-4132,1 53252U 22086L   22293.58334491  .00009901  00000-0  63909-3 0  9999,2 53252  53.2170 343.2268 0002428  32.1749 212.3713 15.08852358  1305,6917.843000000003,95.437,541.387,538.028,0.0
53252.0,STARLINK-4132,PAYLOAD,2022-10-20 22:00:00,15.08831829,0.0002241,53.2174,341.7283,33.361,222.7921,0.0012961,0.00020395,0.0,0 STARLINK-4132,1 53252U 22086L   22293.91667824  .00020395  00000-0  12961-2 0  9996,2 53252  53.2174 341.7283 0002241  33.3610 222.7921 15.08831829 14313,6917.905,95.438,541.321,538.22,0.0
53252.0,STARLINK-4132,PAYLOAD,2022-10-21 14:00:01,15.08818499,0.0002589,53.217,338.7374,34.4612,244.9118,0.0037106,0.0005922999999999,0.0,0 STARLINK-4132,1 53252U 22086L   22294.58334491  .00059230  00000-0  37106-2 0  9999,2 53252  53.2170 338.7374 0002589  34.4612 244.9118 15.08818499  1302,6917.946,95.439,541.602,538.02,0.0
53252.0,STARLINK-4132,PAYLOAD,2022-10-21 22:00:00,15.08845431,0.0002376999999999,53.2176,337.2417,36.3628,254.6003,-0.00088539,-0.00014354,0.0,0 STARLINK-4132,1 53252U 22086L   22294.91667824 -.00014354  00000-0 -88539-3 0  9992,2 53252  53.2176 337.2417 0002377  36.3628 254.6003 15.08845431  1300,6917.864000000001,95.437,541.373,538.0840000000002,0.0
53252.0,STARLINK-4132,PAYLOAD,2022-10-22 14:00:01,15.08827295,0.0002573999999999,53.2174,334.2507,33.4354,280.7199,0.0026975,0.00042891,0.0,0 STARLINK-4132,1 53252U 22086L   22295.58334491  .00042891  00000-0  26975-2 0  9997,2 53252  53.2174 334.2507 0002574  33.4354 280.7199 15.08827295  1302,6917.919,95.438,541.565,538.004,0.0
53252.0,STARLINK-4132,PAYLOAD,2022-10-22 22:00:00,15.08827413,0.0002355,53.2176,332.7526,35.5356,290.2284,0.00085981,0.00013418,0.0,0 STARLINK-4132,1 53252U 22086L   22295.91667824  .00013418  00000-0  85981-3 0  9999,2 53252  53.2176 332.7526 0002355  35.5356 290.2284 15.08827413  1303,6917.919,95.438,541.413,538.155,0.0
53252.0,STARLINK-4132,PAYLOAD,2022-10-23 14:00:01,15.08848845,0.0002543,53.2172,329.7614,32.0905,316.8733,0.0012727,0.0002003,0.0,0 STARLINK-4132,1 53252U 22086L   22296.58334491  .00020030  00000-0  12727-2 0  9999,2 53252  53.2172 329.7614 0002543  32.0905 316.8733 15.08848845  1300,6917.853,95.437,541.4780000000002,537.9590000000002,0.0
53252.0,STARLINK-4132,PAYLOAD,2022-10-23 22:00:00,15.088258499999998,0.0002275999999999,53.2173,328.2633,34.2057,326.3845,0.0020307,0.00032167,0.0,0 STARLINK-4132,1 53252U 22086L   22296.91667824  .00032167  00000-0  20307-2 0  9992,2 53252  53.2173 328.2633 0002276  34.2057 326.3845 15.08825850  1313,6917.924,95.438,541.363,538.214,0.0
53252.0,STARLINK-4132,PAYLOAD,2022-10-24 06:00:00,15.08866862,0.0002296999999999,53.2174,326.7677,31.7679,340.4048,-0.0058856,-0.00092825,0.0,0 STARLINK-4132,1 53252U 22086L   22297.25001157 -.00092825  00000-0 -58856-2 0  9990,2 53252  53.2174 326.7677 0002297  31.7679 340.4048 15.08866862 14820,6917.7980000000025,95.436,541.252,538.0740000000002,0.0
